UNKNOWN                 
1 81745U          25345.39664024  .00004563  00000+0  14527-2 0  9996
2 81745  71.0019  30.4632 0007701 242.2987 117.7368 14.40328929629554
UNKNOWN                 
1 81749U          25319.57490487  .00000211  00000+0  84989-3 0  9997
2 81749  99.6904 353.3665 0369757 269.7481 249.3097 12.77597143558539
UNKNOWN                 
1 81775U          25346.10839830  .00009798  00000+0  30473-2 0  9991
2 81775  82.9187 224.8076 0016515 258.9540 100.9795 14.40833999625188
UNKNOWN                 
1 81779U          25345.63274040  .00009360  00000+0  49044+0 0  9994
2 81779  54.5588 211.0989 1581923  52.9658 320.5595  9.34085606480218
UNKNOWN                 
1 81792U          25343.60414107  .00002958  00000+0  10511-2 0  9990
2 81792  65.8244 102.9224 0896968 283.7439  66.5414 13.10875285 79620
UNKNOWN                 
1 81812U          25345.20256029 -.00000476  00000+0 -27803-2 0  9995
2 81812 103.8166 256.6730 0298061 253.3733 103.4401 12.37679381540377
UNKNOWN                 
1 81816U          25344.86722490  .00000779  00000+0  61558-3 0  9990
2 81816  66.2379 300.7933 0182356 247.5387 110.6288 13.89472541609088
UNKNOWN                 
1 81819U          25345.21652586  .00001269  00000+0  89000-2 0  9997
2 81819 102.1752  82.3604 0035403 125.3291 235.1094 12.47649248547825
UNKNOWN                 
1 81824U          25346.27673519  .00008642  00000+0  30042-2 0  9993
2 81824  65.8420 338.5718 0042337 326.4398  33.4014 14.35375163624521
UNKNOWN                 
1 81833U          25344.02465253  .00000208  00000+0  72903-3 0  9991
2 81833  90.2402   2.8507 0027469  33.6982 326.5876 12.93724946452165
UNKNOWN                 
1 81844U          25341.59858092  .00007584  00000+0  27133-2 0  9997
2 81844  82.9097 286.7429 0061814 166.8555 193.4263 14.32869526622156
UNKNOWN                 
1 81845U          25345.00779831  .00004278  00000+0  47441-3 0  9993
2 81845  97.6742 172.0827 0087011 311.4570 200.6237 14.85042096649264
