CCSDS_OMM_VERS = 2.0
CREATION_DATE  = 
ORIGINATOR     = 

OBJECT_NAME    = UNKNOWN
OBJECT_ID      = 
CENTER_NAME    = EARTH
REF_FRAME      = TEME
TIME_SYSTEM    = UTC
MEAN_ELEMENT_THEORY = SGP/SGP4

EPOCH          = 2025-12-11T09:31:09.716736
MEAN_MOTION    = 14.40328929
ECCENTRICITY   = .0007701
INCLINATION    = 71.0019
RA_OF_ASC_NODE = 30.4632
ARG_OF_PERICENTER = 242.2987
MEAN_ANOMALY   = 117.7368

EPHEMERIS_TYPE = 0
CLASSIFICATION_TYPE = U
NORAD_CAT_ID   = 81745
ELEMENT_SET_NO = 999
REV_AT_EPOCH   = 62955
BSTAR          = .14527E-2
MEAN_MOTION_DOT = .4563E-4
MEAN_MOTION_DDOT = 0

CCSDS_OMM_VERS = 2.0
CREATION_DATE  = 
ORIGINATOR     = 

OBJECT_NAME    = UNKNOWN
OBJECT_ID      = 
CENTER_NAME    = EARTH
REF_FRAME      = TEME
TIME_SYSTEM    = UTC
MEAN_ELEMENT_THEORY = SGP/SGP4

EPOCH          = 2025-11-15T13:47:51.780768
MEAN_MOTION    = 12.77597143
ECCENTRICITY   = .0369757
INCLINATION    = 99.6904
RA_OF_ASC_NODE = 353.3665
ARG_OF_PERICENTER = 269.7481
MEAN_ANOMALY   = 249.3097

EPHEMERIS_TYPE = 0
CLASSIFICATION_TYPE = U
NORAD_CAT_ID   = 81749
ELEMENT_SET_NO = 999
REV_AT_EPOCH   = 55853
BSTAR          = .84989E-3
MEAN_MOTION_DOT = .211E-5
MEAN_MOTION_DDOT = 0

CCSDS_OMM_VERS = 2.0
CREATION_DATE  = 
ORIGINATOR     = 

OBJECT_NAME    = UNKNOWN
OBJECT_ID      = 
CENTER_NAME    = EARTH
REF_FRAME      = TEME
TIME_SYSTEM    = UTC
MEAN_ELEMENT_THEORY = SGP/SGP4

EPOCH          = 2025-12-12T02:36:05.613120
MEAN_MOTION    = 14.40833999
ECCENTRICITY   = .0016515
INCLINATION    = 82.9187
RA_OF_ASC_NODE = 224.8076
ARG_OF_PERICENTER = 258.9540
MEAN_ANOMALY   = 100.9795

EPHEMERIS_TYPE = 0
CLASSIFICATION_TYPE = U
NORAD_CAT_ID   = 81775
ELEMENT_SET_NO = 999
REV_AT_EPOCH   = 62518
BSTAR          = .30473E-2
MEAN_MOTION_DOT = .9798E-4
MEAN_MOTION_DDOT = 0

CCSDS_OMM_VERS = 2.0
CREATION_DATE  = 
ORIGINATOR     = 

OBJECT_NAME    = UNKNOWN
OBJECT_ID      = 
CENTER_NAME    = EARTH
REF_FRAME      = TEME
TIME_SYSTEM    = UTC
MEAN_ELEMENT_THEORY = SGP/SGP4

EPOCH          = 2025-12-11T15:11:08.770560
MEAN_MOTION    = 9.34085606
ECCENTRICITY   = .1581923
INCLINATION    = 54.5588
RA_OF_ASC_NODE = 211.0989
ARG_OF_PERICENTER = 52.9658
MEAN_ANOMALY   = 320.5595

EPHEMERIS_TYPE = 0
CLASSIFICATION_TYPE = U
NORAD_CAT_ID   = 81779
ELEMENT_SET_NO = 999
REV_AT_EPOCH   = 48021
BSTAR          = .49044E+0
MEAN_MOTION_DOT = .936E-4
MEAN_MOTION_DDOT = 0

CCSDS_OMM_VERS = 2.0
CREATION_DATE  = 
ORIGINATOR     = 

OBJECT_NAME    = UNKNOWN
OBJECT_ID      = 
CENTER_NAME    = EARTH
REF_FRAME      = TEME
TIME_SYSTEM    = UTC
MEAN_ELEMENT_THEORY = SGP/SGP4

EPOCH          = 2025-12-09T14:29:57.788448
MEAN_MOTION    = 13.10875285
ECCENTRICITY   = .0896968
INCLINATION    = 65.8244
RA_OF_ASC_NODE = 102.9224
ARG_OF_PERICENTER = 283.7439
MEAN_ANOMALY   = 66.5414

EPHEMERIS_TYPE = 0
CLASSIFICATION_TYPE = U
NORAD_CAT_ID   = 81792
ELEMENT_SET_NO = 999
REV_AT_EPOCH   = 7962
BSTAR          = .10511E-2
MEAN_MOTION_DOT = .2958E-4
MEAN_MOTION_DDOT = 0

CCSDS_OMM_VERS = 2.0
CREATION_DATE  = 
ORIGINATOR     = 

OBJECT_NAME    = UNKNOWN
OBJECT_ID      = 
CENTER_NAME    = EARTH
REF_FRAME      = TEME
TIME_SYSTEM    = UTC
MEAN_ELEMENT_THEORY = SGP/SGP4

EPOCH          = 2025-12-11T04:51:41.209056
MEAN_MOTION    = 12.37679381
ECCENTRICITY   = .0298061
INCLINATION    = 103.8166
RA_OF_ASC_NODE = 256.6730
ARG_OF_PERICENTER = 253.3733
MEAN_ANOMALY   = 103.4401

EPHEMERIS_TYPE = 0
CLASSIFICATION_TYPE = U
NORAD_CAT_ID   = 81812
ELEMENT_SET_NO = 999
REV_AT_EPOCH   = 54037
BSTAR          = -.27803E-2
MEAN_MOTION_DOT = -.476E-5
MEAN_MOTION_DDOT = 0

CCSDS_OMM_VERS = 2.0
CREATION_DATE  = 
ORIGINATOR     = 

OBJECT_NAME    = UNKNOWN
OBJECT_ID      = 
CENTER_NAME    = EARTH
REF_FRAME      = TEME
TIME_SYSTEM    = UTC
MEAN_ELEMENT_THEORY = SGP/SGP4

EPOCH          = 2025-12-10T20:48:48.231360
MEAN_MOTION    = 13.89472541
ECCENTRICITY   = .0182356
INCLINATION    = 66.2379
RA_OF_ASC_NODE = 300.7933
ARG_OF_PERICENTER = 247.5387
MEAN_ANOMALY   = 110.6288

EPHEMERIS_TYPE = 0
CLASSIFICATION_TYPE = U
NORAD_CAT_ID   = 81816
ELEMENT_SET_NO = 999
REV_AT_EPOCH   = 60908
BSTAR          = .61558E-3
MEAN_MOTION_DOT = .779E-5
MEAN_MOTION_DDOT = 0

CCSDS_OMM_VERS = 2.0
CREATION_DATE  = 
ORIGINATOR     = 

OBJECT_NAME    = UNKNOWN
OBJECT_ID      = 
CENTER_NAME    = EARTH
REF_FRAME      = TEME
TIME_SYSTEM    = UTC
MEAN_ELEMENT_THEORY = SGP/SGP4

EPOCH          = 2025-12-11T05:11:47.834304
MEAN_MOTION    = 12.47649248
ECCENTRICITY   = .0035403
INCLINATION    = 102.1752
RA_OF_ASC_NODE = 82.3604
ARG_OF_PERICENTER = 125.3291
MEAN_ANOMALY   = 235.1094

EPHEMERIS_TYPE = 0
CLASSIFICATION_TYPE = U
NORAD_CAT_ID   = 81819
ELEMENT_SET_NO = 999
REV_AT_EPOCH   = 54782
BSTAR          = .89E-2
MEAN_MOTION_DOT = .1269E-4
MEAN_MOTION_DDOT = 0

CCSDS_OMM_VERS = 2.0
CREATION_DATE  = 
ORIGINATOR     = 

OBJECT_NAME    = UNKNOWN
OBJECT_ID      = 
CENTER_NAME    = EARTH
REF_FRAME      = TEME
TIME_SYSTEM    = UTC
MEAN_ELEMENT_THEORY = SGP/SGP4

EPOCH          = 2025-12-12T06:38:29.920416
MEAN_MOTION    = 14.35375163
ECCENTRICITY   = .0042337
INCLINATION    = 65.8420
RA_OF_ASC_NODE = 338.5718
ARG_OF_PERICENTER = 326.4398
MEAN_ANOMALY   = 33.4014

EPHEMERIS_TYPE = 0
CLASSIFICATION_TYPE = U
NORAD_CAT_ID   = 81824
ELEMENT_SET_NO = 999
REV_AT_EPOCH   = 62452
BSTAR          = .30042E-2
MEAN_MOTION_DOT = .8642E-4
MEAN_MOTION_DDOT = 0

CCSDS_OMM_VERS = 2.0
CREATION_DATE  = 
ORIGINATOR     = 

OBJECT_NAME    = UNKNOWN
OBJECT_ID      = 
CENTER_NAME    = EARTH
REF_FRAME      = TEME
TIME_SYSTEM    = UTC
MEAN_ELEMENT_THEORY = SGP/SGP4

EPOCH          = 2025-12-10T00:35:29.978592
MEAN_MOTION    = 12.93724946
ECCENTRICITY   = .0027469
INCLINATION    = 90.2402
RA_OF_ASC_NODE = 2.8507
ARG_OF_PERICENTER = 33.6982
MEAN_ANOMALY   = 326.5876

EPHEMERIS_TYPE = 0
CLASSIFICATION_TYPE = U
NORAD_CAT_ID   = 81833
ELEMENT_SET_NO = 999
REV_AT_EPOCH   = 45216
BSTAR          = .72903E-3
MEAN_MOTION_DOT = .208E-5
MEAN_MOTION_DDOT = 0

CCSDS_OMM_VERS = 2.0
CREATION_DATE  = 
ORIGINATOR     = 

OBJECT_NAME    = UNKNOWN
OBJECT_ID      = 
CENTER_NAME    = EARTH
REF_FRAME      = TEME
TIME_SYSTEM    = UTC
MEAN_ELEMENT_THEORY = SGP/SGP4

EPOCH          = 2025-12-07T14:21:57.391488
MEAN_MOTION    = 14.32869526
ECCENTRICITY   = .0061814
INCLINATION    = 82.9097
RA_OF_ASC_NODE = 286.7429
ARG_OF_PERICENTER = 166.8555
MEAN_ANOMALY   = 193.4263

EPHEMERIS_TYPE = 0
CLASSIFICATION_TYPE = U
NORAD_CAT_ID   = 81844
ELEMENT_SET_NO = 999
REV_AT_EPOCH   = 62215
BSTAR          = .27133E-2
MEAN_MOTION_DOT = .7584E-4
MEAN_MOTION_DDOT = 0

CCSDS_OMM_VERS = 2.0
CREATION_DATE  = 
ORIGINATOR     = 

OBJECT_NAME    = UNKNOWN
OBJECT_ID      = 
CENTER_NAME    = EARTH
REF_FRAME      = TEME
TIME_SYSTEM    = UTC
MEAN_ELEMENT_THEORY = SGP/SGP4

EPOCH          = 2025-12-11T00:11:13.773984
MEAN_MOTION    = 14.85042096
ECCENTRICITY   = .0087011
INCLINATION    = 97.6742
RA_OF_ASC_NODE = 172.0827
ARG_OF_PERICENTER = 311.4570
MEAN_ANOMALY   = 200.6237

EPHEMERIS_TYPE = 0
CLASSIFICATION_TYPE = U
NORAD_CAT_ID   = 81845
ELEMENT_SET_NO = 999
REV_AT_EPOCH   = 64926
BSTAR          = .47441E-3
MEAN_MOTION_DOT = .4278E-4
MEAN_MOTION_DDOT = 0

